{
  "links" : {
    "next" : "https://api.nasa.gov/neo/rest/v1/feed?start_date=2007-10-23&end_date=2007-10-23&detailed=true&api_key=t0TVs3DtDT2H8Oy2Zy8m2eVrNsAVKAexjcZXUckd",
    "prev" : "https://api.nasa.gov/neo/rest/v1/feed?start_date=2007-10-21&end_date=2007-10-21&detailed=true&api_key=t0TVs3DtDT2H8Oy2Zy8m2eVrNsAVKAexjcZXUckd",
    "self" : "https://api.nasa.gov/neo/rest/v1/feed?start_date=2007-10-22&end_date=2007-10-22&detailed=true&api_key=t0TVs3DtDT2H8Oy2Zy8m2eVrNsAVKAexjcZXUckd"
  },
  "element_count" : 13,
  "near_earth_objects" : {
    "2007-10-22" : [ {
      "links" : {
        "self" : "https://api.nasa.gov/neo/rest/v1/neo/3603226?api_key=t0TVs3DtDT2H8Oy2Zy8m2eVrNsAVKAexjcZXUckd"
      },
      "neo_reference_id" : "3603226",
      "name" : "(2012 HC34)",
      "nasa_jpl_url" : "http://ssd.jpl.nasa.gov/sbdb.cgi?sstr=3603226",
      "absolute_magnitude_h" : 20.3,
      "estimated_diameter" : {
        "kilometers" : {
          "estimated_diameter_min" : 0.2315021222,
          "estimated_diameter_max" : 0.5176544822
        },
        "meters" : {
          "estimated_diameter_min" : 231.5021222103,
          "estimated_diameter_max" : 517.6544821978
        },
        "miles" : {
          "estimated_diameter_min" : 0.1438487052,
          "estimated_diameter_max" : 0.3216554833
        },
        "feet" : {
          "estimated_diameter_min" : 759.5214226325,
          "estimated_diameter_max" : 1698.3415313737
        }
      },
      "is_potentially_hazardous_asteroid" : false,
      "close_approach_data" : [ {
        "close_approach_date" : "2007-10-22",
        "epoch_date_close_approach" : 1193036400000,
        "relative_velocity" : {
          "kilometers_per_second" : "21.1413601505",
          "kilometers_per_hour" : "76108.8965417255",
          "miles_per_hour" : "47291.1085206072"
        },
        "miss_distance" : {
          "astronomical" : "0.4526188256",
          "lunar" : "176.0687255859",
          "kilometers" : "67710816",
          "miles" : "42073548"
        },
        "orbiting_body" : "Earth"
      } ],
      "orbital_data" : {
        "orbit_id" : "20",
        "orbit_determination_date" : "2017-05-16 06:22:30",
        "orbit_uncertainty" : "0",
        "minimum_orbit_intersection" : ".42161",
        "jupiter_tisserand_invariant" : "3.693",
        "epoch_osculation" : "2458000.5",
        "eccentricity" : ".3922990967844099",
        "semi_major_axis" : "1.8527257259447",
        "inclination" : "36.32754126280618",
        "ascending_node_longitude" : "45.16230622947657",
        "orbital_period" : "921.1176937993763",
        "perihelion_distance" : "1.125903097067354",
        "perihelion_argument" : "275.024272923849",
        "aphelion_distance" : "2.579548354822045",
        "perihelion_time" : "2458015.729726131305",
        "mean_anomaly" : "354.0477732170631",
        "mean_motion" : ".3908295350565806",
        "equinox" : "J2000"
      }
    }, {
      "links" : {
        "self" : "https://api.nasa.gov/neo/rest/v1/neo/3648711?api_key=t0TVs3DtDT2H8Oy2Zy8m2eVrNsAVKAexjcZXUckd"
      },
      "neo_reference_id" : "3648711",
      "name" : "(2013 SN24)",
      "nasa_jpl_url" : "http://ssd.jpl.nasa.gov/sbdb.cgi?sstr=3648711",
      "absolute_magnitude_h" : 25.0,
      "estimated_diameter" : {
        "kilometers" : {
          "estimated_diameter_min" : 0.02658,
          "estimated_diameter_max" : 0.0594346868
        },
        "meters" : {
          "estimated_diameter_min" : 26.58,
          "estimated_diameter_max" : 59.4346868419
        },
        "miles" : {
          "estimated_diameter_min" : 0.0165160412,
          "estimated_diameter_max" : 0.0369309908
        },
        "feet" : {
          "estimated_diameter_min" : 87.2047272,
          "estimated_diameter_max" : 194.9956979785
        }
      },
      "is_potentially_hazardous_asteroid" : false,
      "close_approach_data" : [ {
        "close_approach_date" : "2007-10-22",
        "epoch_date_close_approach" : 1193036400000,
        "relative_velocity" : {
          "kilometers_per_second" : "17.7197153827",
          "kilometers_per_hour" : "63790.9753777704",
          "miles_per_hour" : "39637.2313395929"
        },
        "miss_distance" : {
          "astronomical" : "0.3850273927",
          "lunar" : "149.7756500244",
          "kilometers" : "57599276",
          "miles" : "35790532"
        },
        "orbiting_body" : "Earth"
      } ],
      "orbital_data" : {
        "orbit_id" : "9",
        "orbit_determination_date" : "2017-04-06 08:44:30",
        "orbit_uncertainty" : "7",
        "minimum_orbit_intersection" : ".0450788",
        "jupiter_tisserand_invariant" : "7.006",
        "epoch_osculation" : "2458000.5",
        "eccentricity" : ".258478513481023",
        "semi_major_axis" : ".8332046598218676",
        "inclination" : "10.09147605662898",
        "ascending_node_longitude" : "189.4805644535385",
        "orbital_period" : "277.7959834092752",
        "perihelion_distance" : ".6178391579256498",
        "perihelion_argument" : "353.6647854204112",
        "aphelion_distance" : "1.048570161718085",
        "perihelion_time" : "2458089.676453205513",
        "mean_anomaly" : "244.434890814505",
        "mean_motion" : "1.295915065372324",
        "equinox" : "J2000"
      }
    }, {
      "links" : {
        "self" : "https://api.nasa.gov/neo/rest/v1/neo/3720359?api_key=t0TVs3DtDT2H8Oy2Zy8m2eVrNsAVKAexjcZXUckd"
      },
      "neo_reference_id" : "3720359",
      "name" : "(2015 KU121)",
      "nasa_jpl_url" : "http://ssd.jpl.nasa.gov/sbdb.cgi?sstr=3720359",
      "absolute_magnitude_h" : 22.9,
      "estimated_diameter" : {
        "kilometers" : {
          "estimated_diameter_min" : 0.0699125232,
          "estimated_diameter_max" : 0.1563291544
        },
        "meters" : {
          "estimated_diameter_min" : 69.9125232246,
          "estimated_diameter_max" : 156.3291544087
        },
        "miles" : {
          "estimated_diameter_min" : 0.0434416145,
          "estimated_diameter_max" : 0.097138403
        },
        "feet" : {
          "estimated_diameter_min" : 229.3718026961,
          "estimated_diameter_max" : 512.8909429502
        }
      },
      "is_potentially_hazardous_asteroid" : false,
      "close_approach_data" : [ {
        "close_approach_date" : "2007-10-22",
        "epoch_date_close_approach" : 1193036400000,
        "relative_velocity" : {
          "kilometers_per_second" : "19.3162617529",
          "kilometers_per_hour" : "69538.542310386",
          "miles_per_hour" : "43208.5459150285"
        },
        "miss_distance" : {
          "astronomical" : "0.4589433533",
          "lunar" : "178.5289764404",
          "kilometers" : "68656952",
          "miles" : "42661452"
        },
        "orbiting_body" : "Earth"
      } ],
      "orbital_data" : {
        "orbit_id" : "32",
        "orbit_determination_date" : "2017-04-14 06:13:06",
        "orbit_uncertainty" : "2",
        "minimum_orbit_intersection" : ".0031712",
        "jupiter_tisserand_invariant" : "5.596",
        "epoch_osculation" : "2458000.5",
        "eccentricity" : ".495415446276373",
        "semi_major_axis" : "1.078100163913362",
        "inclination" : "13.34269374393799",
        "ascending_node_longitude" : "75.18415322045496",
        "orbital_period" : "408.871740496298",
        "perihelion_distance" : ".5439926900775929",
        "perihelion_argument" : "294.3831255213416",
        "aphelion_distance" : "1.612207637749131",
        "perihelion_time" : "2458062.111384369758",
        "mean_anomaly" : "305.7529191276701",
        "mean_motion" : ".8804717087148739",
        "equinox" : "J2000"
      }
    } ]
  }
}